NORAD_CAT_ID,OBJECT_NAME,OBJECT_TYPE,EPOCH,MEAN_MOTION,ECCENTRICITY,INCLINATION,RA_OF_ASC_NODE,ARG_OF_PERICENTER,MEAN_ANOMALY,BSTAR,MEAN_MOTION_DOT,MEAN_MOTION_DDOT,TLE_LINE0,TLE_LINE1,TLE_LINE2,SEMIMAJOR_AXIS,PERIOD,APOGEE,PERIGEE,DECAYED
53000.0,STARLINK-4194,PAYLOAD,2022-12-23 04:10:22,15.08859291,0.0002633,53.2146,317.759,50.2148,309.9075,0.00051765,7.964e-05,0.0,0 STARLINK-4194,1 53000U 22076Q   22357.17387351  .00007964  00000-0  51765-3 0  9992,2 53000  53.2146 317.7590 0002633  50.2148 309.9075 15.08859291 25836,6917.821,95.436,541.508,537.865,0.0
53000.0,STARLINK-4194,PAYLOAD,2022-12-23 23:14:59,15.08851458,0.0002527,53.2162,314.1927,46.4645,313.6556,9.9828e-05,1.301e-05,0.0,0 STARLINK-4194,1 53000U 22076Q   22357.96874945  .00001301  00000-0  99828-4 0  9991,2 53000  53.2162 314.1927 0002527  46.4645 313.6556 15.08851458 26429,6917.845,95.437,541.4590000000002,537.962,0.0
53000.0,STARLINK-4194,PAYLOAD,2022-12-24 04:01:09,15.08847639,0.0002532,53.2162,313.3011,45.5353,314.5846,5.6091e-05,6.05e-06,0.0,0 STARLINK-4194,1 53000U 22076Q   22358.16747043  .00000605  00000-0  56091-4 0  9993,2 53000  53.2162 313.3011 0002532  45.5353 314.5846 15.08847639 25984,6917.857,95.437,541.474,537.97,0.0
53000.0,STARLINK-4194,PAYLOAD,2022-12-24 21:30:23,15.08841754,0.0002475,53.2157,310.0293,44.6872,315.4319,0.00016822,2.39e-05,0.0,0 STARLINK-4194,1 53000U 22076Q   22358.89611060  .00002390  00000-0  16822-3 0  9992,2 53000  53.2157 310.0293 0002475  44.6872 315.4319 15.08841754 26568,6917.875,95.437,541.452,538.028,0.0
53000.0,STARLINK-4194,PAYLOAD,2022-12-25 07:02:42,15.08844527,0.0002452,53.2166,308.2455,40.4502,319.6672,9.584e-06,-1.36e-06,0.0,0 STARLINK-4194,1 53000U 22076Q   22359.29355026 -.00000136  00000-0  95840-5 0  9990,2 53000  53.2166 308.2455 0002452  40.4502 319.6672 15.08844527 26150,6917.8669999999975,95.437,541.428,538.035,0.0
53000.0,STARLINK-4194,PAYLOAD,2022-12-25 13:24:15,15.08838608,0.0002466,53.2162,307.0554,43.2254,316.8931,-1.3537e-05,-5.04e-06,0.0,0 STARLINK-4194,1 53000U 22076Q   22359.55851168 -.00000504  00000-0 -13537-4 0  9999,2 53000  53.2162 307.0554 0002466  43.2254 316.8931 15.08838608 26669,6917.885,95.438,541.456,538.044,0.0
53000.0,STARLINK-4194,PAYLOAD,2022-12-26 05:18:07,15.08833947,0.0002452,53.216,304.0815,41.8777,318.2402,2.1592e-05,5.5e-07,0.0,0 STARLINK-4194,1 53000U 22076Q   22360.22091814  .00000055  00000-0  21592-4 0  9998,2 53000  53.2160 304.0815 0002452  41.8777 318.2402 15.08833947 26292,6917.899,95.438,541.46,538.068,0.0
53000.0,STARLINK-4194,PAYLOAD,2022-12-27 06:44:16,15.08846092,0.0002575,53.2161,299.3228,45.8411,314.2793,4.7314e-05,4.65e-06,0.0,0 STARLINK-4194,1 53000U 22076Q   22361.28075054  .00000465  00000-0  47314-4 0  9998,2 53000  53.2161 299.3228 0002575  45.8411 314.2793 15.08846092 26454,6917.861999999999,95.437,541.508,537.945,0.0
53000.0,STARLINK-4194,PAYLOAD,2022-12-27 13:05:48,15.08853623,0.0002437,53.2163,298.1335,40.8352,319.2823,0.00025987,3.852e-05,0.0,0 STARLINK-4194,1 53000U 22076Q   22361.54570071  .00003852  00000-0  25987-3 0  9990,2 53000  53.2163 298.1335 0002437  40.8352 319.2823 15.08853623 26961,6917.839,95.437,541.39,538.018,0.0
53000.0,STARLINK-4194,PAYLOAD,2022-12-28 04:59:39,15.0885234,0.0002295999999999,53.2162,295.1599,39.0869,321.0289,0.00019115,2.756e-05,0.0,0 STARLINK-4194,1 53000U 22076Q   22362.20809831  .00002756  00000-0  19115-3 0  9991,2 53000  53.2162 295.1599 0002296  39.0869 321.0289 15.08852340 26596,6917.843000000003,95.437,541.2959999999998,538.119,0.0
53000.0,STARLINK-4194,PAYLOAD,2022-12-29 04:50:28,15.08833209,0.0002056999999999,53.2163,290.6984,36.8595,323.2538,-6.2205e-05,-1.278e-05,0.0,0 STARLINK-4194,1 53000U 22076Q   22363.20171969 -.00001278  00000-0 -62205-4 0  9995,2 53000  53.2163 290.6984 0002057  36.8595 323.2538 15.08833209 27215,6917.901,95.438,541.189,538.3430000000002,0.0
53000.0,STARLINK-4194,PAYLOAD,2022-12-29 12:47:25,15.08821734,0.0001867,53.2152,289.2097,43.1256,316.9883,-8.8229e-05,-1.691e-05,0.0,0 STARLINK-4194,1 53000U 22076Q   22363.53292956 -.00001691  00000-0 -88229-4 0  9994,2 53000  53.2152 289.2097 0001867  43.1256 316.9883 15.08821734 27262,6917.936,95.439,541.0930000000002,538.51,0.0
53000.0,STARLINK-4194,PAYLOAD,2022-12-30 04:41:15,15.08840601,0.000241,53.217,286.2351,41.4349,318.6826,-4.7352e-05,-1.042e-05,0.0,0 STARLINK-4194,1 53000U 22076Q   22364.19531709 -.00001042  00000-0 -47352-4 0  9991,2 53000  53.2170 286.2351 0002410  41.4349 318.6826 15.08840601 27362,6917.879,95.438,541.411,538.076,0.0
53000.0,STARLINK-4194,PAYLOAD,2022-12-30 12:38:10,15.08848201,0.0002368,53.2159,284.7524,36.9722,323.1433,7.905899999999999e-05,9.7e-06,0.0,0 STARLINK-4194,1 53000U 22076Q   22364.52651012  .00000970  00000-0  79059-4 0  9994,2 53000  53.2159 284.7524 0002368  36.9722 323.1433 15.08848201 27415,6917.855,95.437,541.3580000000002,538.082,0.0
53000.0,STARLINK-4194,PAYLOAD,2022-12-31 04:32:01,15.08862272,0.0002374,53.2136,281.7787,34.8069,325.3078,0.00067903,0.00010542,0.0,0 STARLINK-4194,1 53000U 22076Q   22365.18890783  .00010542  00000-0  67903-3 0  9997,2 53000  53.2136 281.7787 0002374  34.8069 325.3078 15.08862272 27048,6917.812,95.436,541.32,538.035,0.0
53000.0,STARLINK-4194,PAYLOAD,2023-01-01 04:22:47,15.08846567,0.0002319999999999,53.2137,277.3182,35.0293,325.0852,-0.00038717,-6.446e-05,0.0,0 STARLINK-4194,1 53000U 22076Q   23001.18249984 -.00006446  00000-0 -38717-3 0  9997,2 53000  53.2137 277.3182 0002320  35.0293 325.0852 15.08846567 27666,6917.86,95.437,541.33,538.12,0.0
53000.0,STARLINK-4194,PAYLOAD,2023-01-01 10:44:21,15.0882337,0.0002349,53.2156,276.1259,39.284,320.8323,-0.0004784,-7.891e-05,0.0,0 STARLINK-4194,1 53000U 22076Q   23001.44746709 -.00007891  00000-0 -47840-3 0  9995,2 53000  53.2156 276.1259 0002349  39.2840 320.8323 15.08823370 27702,6917.931,95.439,541.4209999999998,538.1709999999998,0.0
53000.0,STARLINK-4194,PAYLOAD,2023-01-01 18:41:17,15.08808962,0.0002213,53.2144,274.6397,53.0342,307.0853,-0.0003158,-5.307e-05,0.0,0 STARLINK-4194,1 53000U 22076Q   23001.77867749 -.00005307  00000-0 -31580-3 0  9993,2 53000  53.2144 274.6397 0002213  53.0342 307.0853 15.08808962 27284,6917.975,95.44,541.371,538.309,0.0
53000.0,STARLINK-4194,PAYLOAD,2023-01-02 02:38:14,15.08807777,0.0002133999999999,53.2156,273.1559,40.1631,319.9519,-0.00018247,-3.189e-05,0.0,0 STARLINK-4194,1 53000U 22076Q   23002.10988676 -.00003189  00000-0 -18247-3 0  9995,2 53000  53.2156 273.1559 0002134  40.1631 319.9519 15.08807777 27803,6917.979,95.44,541.32,538.368,0.0
53000.0,STARLINK-4194,PAYLOAD,2023-01-02 10:35:10,15.08815029,0.0002189999999999,53.2145,271.668,39.9883,320.127,0.00037455,5.674e-05,0.0,0 STARLINK-4194,1 53000U 22076Q   23002.44109327  .00005674  00000-0  37455-3 0  9991,2 53000  53.2145 271.6680 0002190  39.9883 320.1270 15.08815029 27386,6917.956999999999,95.439,541.337,538.307,0.0
53000.0,STARLINK-4194,PAYLOAD,2023-01-02 18:32:06,15.08826995,0.0002184,53.2141,270.18,32.4701,327.6425,0.0010473,0.00016413,0.0,0 STARLINK-4194,1 53000U 22076Q   23002.77229774  .00016413  00000-0  10473-2 0  9999,2 53000  53.2141 270.1800 0002184  32.4701 327.6425 15.08826995 27906,6917.92,95.438,541.2959999999998,538.274,0.0
53000.0,STARLINK-4194,PAYLOAD,2023-01-03 10:25:57,15.08857891,0.0002150999999999,53.214,267.2069,35.382,324.7314,0.0011972,0.00018826,0.0,0 STARLINK-4194,1 53000U 22076Q   23003.43469442  .00018826  00000-0  11972-2 0  9996,2 53000  53.2140 267.2069 0002151  35.3820 324.7314 15.08857891 27530,6917.826,95.436,541.179,538.203,0.0
53000.0,STARLINK-4194,PAYLOAD,2023-01-04 00:44:25,15.08843201,0.0001884,53.2137,264.5301,42.0441,318.0695,9.2432e-05,1.183e-05,0.0,0 STARLINK-4194,1 53000U 22076Q   23004.03085395  .00001183  00000-0  92432-4 0  9994,2 53000  53.2137 264.5301 0001884  42.0441 318.0695 15.08843201 28091,6917.871,95.437,541.039,538.432,0.0
53000.0,STARLINK-4194,PAYLOAD,2023-01-04 10:16:44,15.08849455,0.0002213,53.2138,262.7462,37.4793,322.6353,0.00058518,9.04e-05,0.0,0 STARLINK-4194,1 53000U 22076Q   23004.42829477  .00009040  00000-0  58518-3 0  9990,2 53000  53.2138 262.7462 0002213  37.4793 322.6353 15.08849455 27688,6917.851,95.437,541.247,538.186,0.0
53000.0,STARLINK-4194,PAYLOAD,2023-01-05 02:10:35,15.08873123,0.000236,53.2137,259.7722,38.6149,321.5012,0.0012513,0.00019701,0.0,0 STARLINK-4194,1 53000U 22076Q   23005.09068666  .00019701  00000-0  12513-2 0  9998,2 53000  53.2137 259.7722 0002360  38.6149 321.5012 15.08873123 28256,6917.779,95.435,541.2769999999998,538.012,0.0
53000.0,STARLINK-4194,PAYLOAD,2023-01-05 10:07:31,15.08847054,0.0001994,53.2139,258.2865,35.9956,324.117,0.0001112,1.482e-05,0.0,0 STARLINK-4194,1 53000U 22076Q   23005.42188817  .00001482  00000-0  11120-3 0  9997,2 53000  53.2139 258.2865 0001994  35.9956 324.1170 15.08847054 28302,6917.859,95.437,541.1030000000002,538.344,0.0
53000.0,STARLINK-4194,PAYLOAD,2023-01-06 09:58:19,15.08829809,0.0002478,53.2138,253.8242,55.533,304.5896,0.00039634,6.023e-05,0.0,0 STARLINK-4194,1 53000U 22076Q   23006.41550058  .00006023  00000-0  39634-3 0  9993,2 53000  53.2138 253.8242 0002478  55.5330 304.5896 15.08829809 28454,6917.911999999998,95.438,541.491,538.062,0.0
53000.0,STARLINK-4194,PAYLOAD,2023-01-07 01:52:10,15.08849741,0.0002177,53.2134,250.8495,53.3127,306.8065,0.00071805,0.00011161,0.0,0 STARLINK-4194,1 53000U 22076Q   23007.07789682  .00011161  00000-0  71805-3 0  9998,2 53000  53.2134 250.8495 0002177  53.3127 306.8065 15.08849741 28554,6917.851,95.437,541.222,538.21,0.0
53000.0,STARLINK-4194,PAYLOAD,2023-01-08 01:42:57,15.08843088,0.0002289,53.2131,246.3899,51.1672,308.9524,0.00018614,2.676e-05,0.0,0 STARLINK-4194,1 53000U 22076Q   23008.07149842  .00002676  00000-0  18614-3 0  9997,2 53000  53.2131 246.3899 0002289  51.1672 308.9524 15.08843088 28702,6917.871,95.437,541.319,538.1519999999998,0.0
